
# Worst residual: 113.97 km
# MJD 60642.000000 (2024 Nov 28  0:00)
A11dENN = A11dHal = A11dusy
1 79903U 24999ZYU 24333.49919926  .00000000  00000-0  00000-0 0 25005
2 79903 022.6886 297.1177 7235774 312.5460 003.9791 01.03347716    03

# Worst residual: 130.01 km
# MJD 60643.000000 (2024 Nov 29  0:00)
A11dENN = A11dHal = A11dusy
1 79903U 24999ZYU 24334.49919926  .00000000  00000-0  00000-0 0 25006
2 79903 022.6701 297.0924 7244408 313.2135 014.1083 01.03380559    09

# Worst residual: 147.66 km
# MJD 60644.000000 (2024 Nov 30  0:00)
A11dENN = A11dHal = A11dusy
1 79903U 24999ZYU 24335.49919926  .00000000  00000-0  00000-0 0 25007
2 79903 022.6447 297.0913 7254002 313.8467 024.3493 01.03401872    09

# Worst residual: 162.10 km
# MJD 60645.000000 (2024 Dec  1  0:00)
A11dENN = A11dHal = A11dusy
1 79903U 24999ZYU 24336.49919926  .00000000  00000-0  00000-0 0 25008
2 79903 022.6155 297.0983 7264105 314.4824 034.6484 01.03406555    08

# Worst residual: 176.39 km
# MJD 60646.000000 (2024 Dec  2  0:00)
A11dENN = A11dHal = A11dusy
1 79903U 24999ZYU 24337.49919926  .00000000  00000-0  00000-0 0 25009
2 79903 022.5833 297.1119 7273257 315.1233 044.9809 01.03392860    00

# Worst residual: 187.25 km
# MJD 60647.000000 (2024 Dec  3  0:00)
A11dENN = A11dHal = A11dusy
1 79903U 24999ZYU 24338.49919926  .00000000  00000-0  00000-0 0 25000
2 79903 022.5496 297.1177 7282430 315.7732 055.3490 01.03353474    02

# Worst residual: 196.08 km
# MJD 60648.000000 (2024 Dec  4  0:00)
A11dENN = A11dHal = A11dusy
1 79903U 24999ZYU 24339.49919926  .00000000  00000-0  00000-0 0 25001
2 79903 022.5039 297.1765 7291756 316.3931 065.6499 01.03318342    05

# Worst residual: 189.73 km
# MJD 60649.000000 (2024 Dec  5  0:00)
A11dENN = A11dHal = A11dusy
1 79903U 24999ZYU 24340.49919926  .00000000  00000-0  00000-0 0 25003
2 79903 022.4562 297.2268 7301032 317.0337 075.9125 01.03271443    01

# Worst residual: 179.08 km
# MJD 60650.000000 (2024 Dec  6  0:00)
A11dENN = A11dHal = A11dusy
1 79903U 24999ZYU 24341.49919926  .00000000  00000-0  00000-0 0 25004
2 79903 022.4042 297.2862 7308499 317.6701 086.1583 01.03220743    08

# Worst residual: 184.42 km
# MJD 60651.000000 (2024 Dec  7  0:00)
A11dENN = A11dHal = A11dusy
1 79903U 24999ZYU 24342.49919926  .00000000  00000-0  00000-0 0 25005
2 79903 022.3541 297.3417 7315224 318.2942 096.4390 01.03172058    01

# Worst residual: 196.99 km
# MJD 60652.000000 (2024 Dec  8  0:00)
A11dENN = A11dHal = A11dusy
1 79903U 24999ZYU 24343.49919926  .00000000  00000-0  00000-0 0 25006
2 79903 022.2892 297.4066 7321955 318.9274 106.6943 01.03131396    01

# Worst residual: 181.81 km
# MJD 60653.000000 (2024 Dec  9  0:00)
A11dENN = A11dHal = A11dusy
1 79903U 24999ZYU 24344.49919926  .00000000  00000-0  00000-0 0 25007
2 79903 022.2117 297.5358 7329006 319.4809 116.9517 01.03107364    00

# Worst residual: 205.81 km
# MJD 60654.000000 (2024 Dec 10  0:00)
A11dENN = A11dHal = A11dusy
1 79903U 24999ZYU 24345.49919926  .00000000  00000-0  00000-0 0 25008
2 79903 022.1388 297.6286 7332114 320.0931 127.1589 01.03046761    04

# Worst residual: 202.89 km
# MJD 60655.000000 (2024 Dec 11  0:00)
A11dENN = A11dHal = A11dusy
1 79903U 24999ZYU 24346.49919926  .00000000  00000-0  00000-0 0 25009
2 79903 022.0596 297.7351 7335854 320.6708 137.4159 01.03004652    00

# Worst residual: 179.10 km
# MJD 60656.000000 (2024 Dec 12  0:00)
A11dENN = A11dHal = A11dusy
1 79903U 24999ZYU 24347.49919926  .00000000  00000-0  00000-0 0 25000
2 79903 021.9752 297.8494 7340375 321.2340 147.6881 01.02969766    04

# Worst residual: 141.37 km
# MJD 60657.000000 (2024 Dec 13  0:00)
A11dENN = A11dHal = A11dusy
1 79903U 24999ZYU 24348.49919926  .00000000  00000-0  00000-0 0 25001
2 79903 021.8885 297.9674 7345273 321.8022 157.9354 01.02946791    08

# Worst residual: 102.30 km
# MJD 60658.000000 (2024 Dec 14  0:00)
A11dENN = A11dHal = A11dusy
1 79903U 24999ZYU 24349.49919926  .00000000  00000-0  00000-0 0 25002
2 79903 021.7940 298.1005 7348158 322.3588 168.1735 01.02921975    02

# Worst residual: 58.75 km
# MJD 60659.000000 (2024 Dec 15  0:00)
A11dENN = A11dHal = A11dusy
1 79903U 24999ZYU 24350.49919926  .00000000  00000-0  00000-0 0 25004
2 79903 021.6869 298.2529 7349074 322.8916 178.4264 01.02897399    04

# Worst residual: 58.41 km
# MJD 60660.000000 (2024 Dec 16  0:00)
A11dENN = A11dHal = A11dusy
1 79903U 24999ZYU 24351.49919926  .00000000  00000-0  00000-0 0 25005
2 79903 021.5821 298.3948 7350101 323.4188 188.7158 01.02870444    06

# Worst residual: 57.13 km
# MJD 60661.000000 (2024 Dec 17  0:00)
A11dENN = A11dHal = A11dusy
1 79903U 24999ZYU 24352.49919926  .00000000  00000-0  00000-0 0 25006
2 79903 021.4685 298.5537 7352218 323.9234 199.0162 01.02865665    06

# Worst residual: 57.31 km
# MJD 60662.000000 (2024 Dec 18  0:00)
A11dENN = A11dHal = A11dusy
1 79903U 24999ZYU 24353.49919926  .00000000  00000-0  00000-0 0 25007
2 79903 021.3641 298.6815 7356169 324.4587 209.3366 01.02887091    01

# Worst residual: 84.56 km
# MJD 60663.000000 (2024 Dec 19  0:00)
A11dENN = A11dHal = A11dusy
1 79903U 24999ZYU 24354.49919926  .00000000  00000-0  00000-0 0 25008
2 79903 021.2539 298.8341 7362719 324.9647 219.6609 01.02922315    05

# Worst residual: 103.54 km
# MJD 60664.000000 (2024 Dec 20  0:00)
A11dENN = A11dHal = A11dusy
1 79903U 24999ZYU 24355.49919926  .00000000  00000-0  00000-0 0 25009
2 79903 021.1073 299.0375 7368282 325.4414 229.9759 01.02952504    09

# Worst residual: 121.39 km
# MJD 60665.000000 (2024 Dec 21  0:00)
A11dENN = A11dHal = A11dusy
1 79903U 24999ZYU 24356.49919926  .00000000  00000-0  00000-0 0 25000
2 79903 020.9925 299.1734 7371853 325.9790 240.2800 01.02980695    07

# Worst residual: 155.02 km
# MJD 60666.000000 (2024 Dec 22  0:00)
A11dENN = A11dHal = A11dusy
1 79903U 24999ZYU 24357.49919926  .00000000  00000-0  00000-0 0 25001
2 79903 020.8604 299.3375 7375027 326.4898 250.6006 01.02998844    03

# Worst residual: 183.94 km
# MJD 60667.000000 (2024 Dec 23  0:00)
A11dENN = A11dHal = A11dusy
1 79903U 24999ZYU 24358.49919926  .00000000  00000-0  00000-0 0 25002
2 79903 020.7235 299.5222 7376718 326.9806 260.9314 01.03042017    06

# Worst residual: 190.18 km
# MJD 60668.000000 (2024 Dec 24  0:00)
A11dENN = A11dHal = A11dusy
1 79903U 24999ZYU 24359.49919926  .00000000  00000-0  00000-0 0 25003
2 79903 020.5917 299.7017 7380092 327.4791 271.2684 01.03069578    00

# Worst residual: 181.50 km
# MJD 60669.000000 (2024 Dec 25  0:00)
A11dENN = A11dHal = A11dusy
1 79903U 24999ZYU 24360.49919926  .00000000  00000-0  00000-0 0 25005
2 79903 020.4512 299.8849 7381082 327.9876 281.5643 01.03129244    09

# Worst residual: 183.29 km
# MJD 60670.000000 (2024 Dec 26  0:00)
A11dENN = A11dHal = A11dusy
1 79903U 24999ZYU 24361.49919926  .00000000  00000-0  00000-0 0 25006
2 79903 020.2895 300.0673 7380511 328.4937 291.9047 01.03153654    06
